{
  "type": "FeatureCollection",
  "features": [
    {
      "type": "Feature",
      "properties": {
        "norad_id": 2807,
        "name": "OPS 7218 (TRANSIT 16)",
        "group": "nnss",
        "lat": -17.212744265198925,
        "lon": 174.09421681888017,
        "alt_km": 1073.0520242560187,
        "timestamp": "2025-12-13T10:41:26.034322+00:00",
        "meta_object_name": "OPS 7218 (TRANSIT 16)",
        "meta_object_id": "1967-048A",
        "meta_epoch": "2025-12-13T01:05:44.276640",
        "meta_mean_motion": 13.50722209,
        "meta_eccentricity": 0.00219744,
        "meta_inclination": 89.6732,
        "meta_ra_of_asc_node": 354.0061,
        "meta_arg_of_pericenter": 113.2492,
        "meta_mean_anomaly": 300.7433,
        "meta_ephemeris_type": 0,
        "meta_classification_type": "U",
        "meta_norad_cat_id": 2807,
        "meta_element_set_no": 999,
        "meta_rev_at_epoch": 88280,
        "meta_bstar": 0.00019026806,
        "meta_mean_motion_dot": 1.33e-06,
        "meta_mean_motion_ddot": 0,
        "tle_line1": "1 02807U 67048A   25347.04565135  .00000133  00000+0  19027-3 0  9990",
        "tle_line2": "2 02807  89.6732 354.0061 0021974 113.2492 300.7433 13.50722209882805"
      },
      "geometry": {
        "type": "Point",
        "coordinates": [
          174.09421681888017,
          -17.212744265198925
        ]
      }
    },
    {
      "type": "Feature",
      "properties": {
        "norad_id": 2965,
        "name": "OPS 4947 (TRANSIT 17)",
        "group": "nnss",
        "lat": -88.39642380028293,
        "lon": -127.70455598224517,
        "alt_km": 1039.255500038952,
        "timestamp": "2025-12-13T10:41:26.034345+00:00",
        "meta_object_name": "OPS 4947 (TRANSIT 17)",
        "meta_object_id": "1967-092A",
        "meta_epoch": "2025-12-13T00:47:49.060608",
        "meta_mean_motion": 13.53453547,
        "meta_eccentricity": 0.00462025,
        "meta_inclination": 89.2496,
        "meta_ra_of_asc_node": 24.4133,
        "meta_arg_of_pericenter": 233.6286,
        "meta_mean_anomaly": 187.2575,
        "meta_ephemeris_type": 0,
        "meta_classification_type": "U",
        "meta_norad_cat_id": 2965,
        "meta_element_set_no": 999,
        "meta_rev_at_epoch": 87101,
        "meta_bstar": 0.00024456166,
        "meta_mean_motion_dot": 1.76e-06,
        "meta_mean_motion_ddot": 0,
        "tle_line1": "1 02965U 67092A   25347.03320672  .00000176  00000+0  24456-3 0  9997",
        "tle_line2": "2 02965  89.2496  24.4133 0046202 233.6286 187.2575 13.53453547871015"
      },
      "geometry": {
        "type": "Point",
        "coordinates": [
          -127.70455598224517,
          -88.39642380028293
        ]
      }
    },
    {
      "type": "Feature",
      "properties": {
        "norad_id": 3133,
        "name": "OPS 7034 (TRANSIT 18)",
        "group": "nnss",
        "lat": 51.829422016783134,
        "lon": -86.39484101481659,
        "alt_km": 1084.8045961970265,
        "timestamp": "2025-12-13T10:41:26.034368+00:00",
        "meta_object_name": "OPS 7034 (TRANSIT 18)",
        "meta_object_id": "1968-012A",
        "meta_epoch": "2025-12-12T18:34:59.666016",
        "meta_mean_motion": 13.51565626,
        "meta_eccentricity": 0.00738458,
        "meta_inclination": 90.028,
        "meta_ra_of_asc_node": 273.6389,
        "meta_arg_of_pericenter": 169.0091,
        "meta_mean_anomaly": 220.0827,
        "meta_ephemeris_type": 0,
        "meta_classification_type": "U",
        "meta_norad_cat_id": 3133,
        "meta_element_set_no": 999,
        "meta_rev_at_epoch": 56919,
        "meta_bstar": 0.00023013624,
        "meta_mean_motion_dot": 1.62e-06,
        "meta_mean_motion_ddot": 0,
        "tle_line1": "1 03133U 68012A   25346.77430169  .00000162  00000+0  23014-3 0  9995",
        "tle_line2": "2 03133  90.0280 273.6389 0073845 169.0091 220.0827 13.51565626569193"
      },
      "geometry": {
        "type": "Point",
        "coordinates": [
          -86.39484101481659,
          51.829422016783134
        ]
      }
    },
    {
      "type": "Feature",
      "properties": {
        "norad_id": 4507,
        "name": "NNSS 19 (TRANSIT 19)",
        "group": "nnss",
        "lat": 25.343361866512662,
        "lon": -125.46821543596516,
        "alt_km": 1073.5835578710548,
        "timestamp": "2025-12-13T10:41:26.034379+00:00",
        "meta_object_name": "NNSS 19 (TRANSIT 19)",
        "meta_object_id": "1970-067A",
        "meta_epoch": "2025-12-12T22:07:35.652288",
        "meta_mean_motion": 13.51315087,
        "meta_eccentricity": 0.01705349,
        "meta_inclination": 90.0055,
        "meta_ra_of_asc_node": 234.5341,
        "meta_arg_of_pericenter": 292.8486,
        "meta_mean_anomaly": 65.4735,
        "meta_ephemeris_type": 0,
        "meta_classification_type": "U",
        "meta_norad_cat_id": 4507,
        "meta_element_set_no": 999,
        "meta_rev_at_epoch": 72224,
        "meta_bstar": 0.00020428388,
        "meta_mean_motion_dot": 1.53e-06,
        "meta_mean_motion_ddot": 0,
        "tle_line1": "1 04507U 70067A   25346.92194042  .00000153  00000+0  20428-3 0  9994",
        "tle_line2": "2 04507  90.0055 234.5341 0170534 292.8486  65.4735 13.51315087722249"
      },
      "geometry": {
        "type": "Point",
        "coordinates": [
          -125.46821543596516,
          25.343361866512662
        ]
      }
    },
    {
      "type": "Feature",
      "properties": {
        "norad_id": 6909,
        "name": "NNSS 20 (TRANSIT 20)",
        "group": "nnss",
        "lat": 31.00677385943393,
        "lon": 74.95709847168575,
        "alt_km": 956.7729785857146,
        "timestamp": "2025-12-13T10:41:26.034390+00:00",
        "meta_object_name": "NNSS 20 (TRANSIT 20)",
        "meta_object_id": "1973-081A",
        "meta_epoch": "2025-12-12T18:13:27.129792",
        "meta_mean_motion": 13.71434203,
        "meta_eccentricity": 0.01566254,
        "meta_inclination": 89.8562,
        "meta_ra_of_asc_node": 255.0539,
        "meta_arg_of_pericenter": 78.2583,
        "meta_mean_anomaly": 283.6104,
        "meta_ephemeris_type": 0,
        "meta_classification_type": "U",
        "meta_norad_cat_id": 6909,
        "meta_element_set_no": 999,
        "meta_rev_at_epoch": 80361,
        "meta_bstar": 0.00033300111,
        "meta_mean_motion_dot": 3.38e-06,
        "meta_mean_motion_ddot": 0,
        "tle_line1": "1 06909U 73081A   25346.75934178  .00000338  00000+0  33300-3 0  9992",
        "tle_line2": "2 06909  89.8562 255.0539 0156625  78.2583 283.6104 13.71434203803611"
      },
      "geometry": {
        "type": "Point",
        "coordinates": [
          74.95709847168575,
          31.00677385943393
        ]
      }
    },
    {
      "type": "Feature",
      "properties": {
        "norad_id": 10457,
        "name": "TRANSAT",
        "group": "nnss",
        "lat": 22.284790536841214,
        "lon": 78.71633159937838,
        "alt_km": 1094.133300831807,
        "timestamp": "2025-12-13T10:41:26.034401+00:00",
        "meta_object_name": "TRANSAT",
        "meta_object_id": "1977-106A",
        "meta_epoch": "2025-12-12T19:07:09.378048",
        "meta_mean_motion": 13.48943636,
        "meta_eccentricity": 0.00254046,
        "meta_inclination": 89.6481,
        "meta_ra_of_asc_node": 78.595,
        "meta_arg_of_pericenter": 189.2955,
        "meta_mean_anomaly": 284.3192,
        "meta_ephemeris_type": 0,
        "meta_classification_type": "U",
        "meta_norad_cat_id": 10457,
        "meta_element_set_no": 999,
        "meta_rev_at_epoch": 36744,
        "meta_bstar": 0.0001644799,
        "meta_mean_motion_dot": 1.13e-06,
        "meta_mean_motion_ddot": 0,
        "tle_line1": "1 10457U 77106A   25346.79663632  .00000113  00000+0  16448-3 0  9990",
        "tle_line2": "2 10457  89.6481  78.5950 0025404 189.2955 284.3192 13.48943636367443"
      },
      "geometry": {
        "type": "Point",
        "coordinates": [
          78.71633159937838,
          22.284790536841214
        ]
      }
    },
    {
      "type": "Feature",
      "properties": {
        "norad_id": 12458,
        "name": "NOVA 1",
        "group": "nnss",
        "lat": -39.13633059829511,
        "lon": -88.50481663856435,
        "alt_km": 1184.128613526933,
        "timestamp": "2025-12-13T10:41:26.034412+00:00",
        "meta_object_name": "NOVA 1",
        "meta_object_id": "1981-044A",
        "meta_epoch": "2025-12-12T19:39:35.311680",
        "meta_mean_motion": 13.23278553,
        "meta_eccentricity": 0.00158913,
        "meta_inclination": 89.8524,
        "meta_ra_of_asc_node": 91.3839,
        "meta_arg_of_pericenter": 103.7954,
        "meta_mean_anomaly": 13.3312,
        "meta_ephemeris_type": 0,
        "meta_classification_type": "U",
        "meta_norad_cat_id": 12458,
        "meta_element_set_no": 999,
        "meta_rev_at_epoch": 15187,
        "meta_bstar": 0.00020457654,
        "meta_mean_motion_dot": 9.6e-07,
        "meta_mean_motion_ddot": 0,
        "tle_line1": "1 12458U 81044A   25346.81915870  .00000096  00000+0  20458-3 0  9992",
        "tle_line2": "2 12458  89.8524  91.3839 0015891 103.7954  13.3312 13.23278553151878"
      },
      "geometry": {
        "type": "Point",
        "coordinates": [
          -88.50481663856435,
          -39.13633059829511
        ]
      }
    }
  ]
}